STARLINK-36942          
1 68030U 26040R   26079.08336806 -.01938623  00000+0 -13228-1 0  9997
2 68030  97.2821  28.0593 0001353 107.8572 212.6237 15.77967946  4094
STARLINK-36913          
1 68031U 26040S   26079.08336806 -.01944870  00000+0 -13310-1 0  9991
2 68031  97.2824  28.0614 0001268 103.4537 221.1603 15.77914140  4090
STARLINK-36935          
1 68032U 26040T   26079.08336806 -.01899038  00000+0 -13196-1 0  9999
2 68032  97.2815  28.0755 0001264 100.0992 253.3727 15.77493344  4194
STARLINK-36947          
1 68033U 26040U   26079.08336806 -.01946223  00000+0 -13354-1 0  9995
2 68033  97.2828  28.0633 0001347 110.5045 218.2406 15.77856985  4098
STARLINK-36939          
1 68034U 26040V   26079.08336806 -.01938888  00000+0 -13433-1 0  9992
2 68034  97.2815  28.0714 0001412 110.4934 234.7421 15.77627641  4099
STARLINK-36943          
1 68035U 26040W   26079.08336806 -.00937501  00000+0 -68054-2 0  9993
2 68035  97.2852  28.0795 0001400 105.7310 247.6422 15.75865661  4146
STARLINK-36906          
1 68036U 26040X   26079.08336806 -.01940928  00000+0 -13414-1 0  9991
2 68036  97.2833  28.0693 0001312 110.9533 230.1598 15.77687308  4097
STARLINK-36388          
1 68037U 26040Y   26079.08336806 -.01859877  00000+0 -12862-1 0  9990
2 68037  97.2820  28.0748 0001178 104.2411 245.1199 15.77531790  4047
STARLINK-36895          
1 68038U 26040Z   26079.08336806 -.01943159  00000+0 -13398-1 0  9993
2 68038  97.2817  28.0647 0001319 109.1841 227.8106 15.77743136  4099
STARLINK-36373          
1 68039U 26040AA  26079.08336806 -.01924291  00000+0 -13223-1 0  9997
2 68039  97.2819  28.0632 0001250 111.0031 221.8683 15.77787214  4047
STARLINK-36711          
1 68040U 26041A   26079.17492186  .00225202  00000+0  14308-2 0  9993
2 68040  53.1595   9.8195 0001080  90.4098 269.7046 15.75298664  2873
STARLINK-36825          
1 68041U 26041B   26079.15420066  .00188729  00000+0  93671-3 0  9993
2 68041  53.1598   9.6803 0000927  98.0576 262.0552 15.80925722  2871
