CCSDS_OMM_VERS = 2.0
CREATION_DATE  = 
ORIGINATOR     = 

OBJECT_NAME    = STARLINK-36942
OBJECT_ID      = 2026-040R
CENTER_NAME    = EARTH
REF_FRAME      = TEME
TIME_SYSTEM    = UTC
MEAN_ELEMENT_THEORY = SGP/SGP4

EPOCH          = 2026-03-20T02:00:03.000384
MEAN_MOTION    = 15.77967946
ECCENTRICITY   = .0001353
INCLINATION    = 97.2821
RA_OF_ASC_NODE = 28.0593
ARG_OF_PERICENTER = 107.8572
MEAN_ANOMALY   = 212.6237

EPHEMERIS_TYPE = 0
CLASSIFICATION_TYPE = U
NORAD_CAT_ID   = 68030
ELEMENT_SET_NO = 999
REV_AT_EPOCH   = 409
BSTAR          = -.13228E-1
MEAN_MOTION_DOT = -.1938623E-1
MEAN_MOTION_DDOT = 0

CCSDS_OMM_VERS = 2.0
CREATION_DATE  = 
ORIGINATOR     = 

OBJECT_NAME    = STARLINK-36913
OBJECT_ID      = 2026-040S
CENTER_NAME    = EARTH
REF_FRAME      = TEME
TIME_SYSTEM    = UTC
MEAN_ELEMENT_THEORY = SGP/SGP4

EPOCH          = 2026-03-20T02:00:03.000384
MEAN_MOTION    = 15.77914140
ECCENTRICITY   = .0001268
INCLINATION    = 97.2824
RA_OF_ASC_NODE = 28.0614
ARG_OF_PERICENTER = 103.4537
MEAN_ANOMALY   = 221.1603

EPHEMERIS_TYPE = 0
CLASSIFICATION_TYPE = U
NORAD_CAT_ID   = 68031
ELEMENT_SET_NO = 999
REV_AT_EPOCH   = 409
BSTAR          = -.1331E-1
MEAN_MOTION_DOT = -.194487E-1
MEAN_MOTION_DDOT = 0

CCSDS_OMM_VERS = 2.0
CREATION_DATE  = 
ORIGINATOR     = 

OBJECT_NAME    = STARLINK-36935
OBJECT_ID      = 2026-040T
CENTER_NAME    = EARTH
REF_FRAME      = TEME
TIME_SYSTEM    = UTC
MEAN_ELEMENT_THEORY = SGP/SGP4

EPOCH          = 2026-03-20T02:00:03.000384
MEAN_MOTION    = 15.77493344
ECCENTRICITY   = .0001264
INCLINATION    = 97.2815
RA_OF_ASC_NODE = 28.0755
ARG_OF_PERICENTER = 100.0992
MEAN_ANOMALY   = 253.3727

EPHEMERIS_TYPE = 0
CLASSIFICATION_TYPE = U
NORAD_CAT_ID   = 68032
ELEMENT_SET_NO = 999
REV_AT_EPOCH   = 419
BSTAR          = -.13196E-1
MEAN_MOTION_DOT = -.1899038E-1
MEAN_MOTION_DDOT = 0

CCSDS_OMM_VERS = 2.0
CREATION_DATE  = 
ORIGINATOR     = 

OBJECT_NAME    = STARLINK-36947
OBJECT_ID      = 2026-040U
CENTER_NAME    = EARTH
REF_FRAME      = TEME
TIME_SYSTEM    = UTC
MEAN_ELEMENT_THEORY = SGP/SGP4

EPOCH          = 2026-03-20T02:00:03.000384
MEAN_MOTION    = 15.77856985
ECCENTRICITY   = .0001347
INCLINATION    = 97.2828
RA_OF_ASC_NODE = 28.0633
ARG_OF_PERICENTER = 110.5045
MEAN_ANOMALY   = 218.2406

EPHEMERIS_TYPE = 0
CLASSIFICATION_TYPE = U
NORAD_CAT_ID   = 68033
ELEMENT_SET_NO = 999
REV_AT_EPOCH   = 409
BSTAR          = -.13354E-1
MEAN_MOTION_DOT = -.1946223E-1
MEAN_MOTION_DDOT = 0

CCSDS_OMM_VERS = 2.0
CREATION_DATE  = 
ORIGINATOR     = 

OBJECT_NAME    = STARLINK-36939
OBJECT_ID      = 2026-040V
CENTER_NAME    = EARTH
REF_FRAME      = TEME
TIME_SYSTEM    = UTC
MEAN_ELEMENT_THEORY = SGP/SGP4

EPOCH          = 2026-03-20T02:00:03.000384
MEAN_MOTION    = 15.77627641
ECCENTRICITY   = .0001412
INCLINATION    = 97.2815
RA_OF_ASC_NODE = 28.0714
ARG_OF_PERICENTER = 110.4934
MEAN_ANOMALY   = 234.7421

EPHEMERIS_TYPE = 0
CLASSIFICATION_TYPE = U
NORAD_CAT_ID   = 68034
ELEMENT_SET_NO = 999
REV_AT_EPOCH   = 409
BSTAR          = -.13433E-1
MEAN_MOTION_DOT = -.1938888E-1
MEAN_MOTION_DDOT = 0

CCSDS_OMM_VERS = 2.0
CREATION_DATE  = 
ORIGINATOR     = 

OBJECT_NAME    = STARLINK-36943
OBJECT_ID      = 2026-040W
CENTER_NAME    = EARTH
REF_FRAME      = TEME
TIME_SYSTEM    = UTC
MEAN_ELEMENT_THEORY = SGP/SGP4

EPOCH          = 2026-03-20T02:00:03.000384
MEAN_MOTION    = 15.75865661
ECCENTRICITY   = .00014
INCLINATION    = 97.2852
RA_OF_ASC_NODE = 28.0795
ARG_OF_PERICENTER = 105.7310
MEAN_ANOMALY   = 247.6422

EPHEMERIS_TYPE = 0
CLASSIFICATION_TYPE = U
NORAD_CAT_ID   = 68035
ELEMENT_SET_NO = 999
REV_AT_EPOCH   = 414
BSTAR          = -.68054E-2
MEAN_MOTION_DOT = -.937501E-2
MEAN_MOTION_DDOT = 0

CCSDS_OMM_VERS = 2.0
CREATION_DATE  = 
ORIGINATOR     = 

OBJECT_NAME    = STARLINK-36906
OBJECT_ID      = 2026-040X
CENTER_NAME    = EARTH
REF_FRAME      = TEME
TIME_SYSTEM    = UTC
MEAN_ELEMENT_THEORY = SGP/SGP4

EPOCH          = 2026-03-20T02:00:03.000384
MEAN_MOTION    = 15.77687308
ECCENTRICITY   = .0001312
INCLINATION    = 97.2833
RA_OF_ASC_NODE = 28.0693
ARG_OF_PERICENTER = 110.9533
MEAN_ANOMALY   = 230.1598

EPHEMERIS_TYPE = 0
CLASSIFICATION_TYPE = U
NORAD_CAT_ID   = 68036
ELEMENT_SET_NO = 999
REV_AT_EPOCH   = 409
BSTAR          = -.13414E-1
MEAN_MOTION_DOT = -.1940928E-1
MEAN_MOTION_DDOT = 0

CCSDS_OMM_VERS = 2.0
CREATION_DATE  = 
ORIGINATOR     = 

OBJECT_NAME    = STARLINK-36388
OBJECT_ID      = 2026-040Y
CENTER_NAME    = EARTH
REF_FRAME      = TEME
TIME_SYSTEM    = UTC
MEAN_ELEMENT_THEORY = SGP/SGP4

EPOCH          = 2026-03-20T02:00:03.000384
MEAN_MOTION    = 15.77531790
ECCENTRICITY   = .0001178
INCLINATION    = 97.2820
RA_OF_ASC_NODE = 28.0748
ARG_OF_PERICENTER = 104.2411
MEAN_ANOMALY   = 245.1199

EPHEMERIS_TYPE = 0
CLASSIFICATION_TYPE = U
NORAD_CAT_ID   = 68037
ELEMENT_SET_NO = 999
REV_AT_EPOCH   = 404
BSTAR          = -.12862E-1
MEAN_MOTION_DOT = -.1859877E-1
MEAN_MOTION_DDOT = 0

CCSDS_OMM_VERS = 2.0
CREATION_DATE  = 
ORIGINATOR     = 

OBJECT_NAME    = STARLINK-36895
OBJECT_ID      = 2026-040Z
CENTER_NAME    = EARTH
REF_FRAME      = TEME
TIME_SYSTEM    = UTC
MEAN_ELEMENT_THEORY = SGP/SGP4

EPOCH          = 2026-03-20T02:00:03.000384
MEAN_MOTION    = 15.77743136
ECCENTRICITY   = .0001319
INCLINATION    = 97.2817
RA_OF_ASC_NODE = 28.0647
ARG_OF_PERICENTER = 109.1841
MEAN_ANOMALY   = 227.8106

EPHEMERIS_TYPE = 0
CLASSIFICATION_TYPE = U
NORAD_CAT_ID   = 68038
ELEMENT_SET_NO = 999
REV_AT_EPOCH   = 409
BSTAR          = -.13398E-1
MEAN_MOTION_DOT = -.1943159E-1
MEAN_MOTION_DDOT = 0

CCSDS_OMM_VERS = 2.0
CREATION_DATE  = 
ORIGINATOR     = 

OBJECT_NAME    = STARLINK-36373
OBJECT_ID      = 2026-040AA
CENTER_NAME    = EARTH
REF_FRAME      = TEME
TIME_SYSTEM    = UTC
MEAN_ELEMENT_THEORY = SGP/SGP4

EPOCH          = 2026-03-20T02:00:03.000384
MEAN_MOTION    = 15.77787214
ECCENTRICITY   = .000125
INCLINATION    = 97.2819
RA_OF_ASC_NODE = 28.0632
ARG_OF_PERICENTER = 111.0031
MEAN_ANOMALY   = 221.8683

EPHEMERIS_TYPE = 0
CLASSIFICATION_TYPE = U
NORAD_CAT_ID   = 68039
ELEMENT_SET_NO = 999
REV_AT_EPOCH   = 404
BSTAR          = -.13223E-1
MEAN_MOTION_DOT = -.1924291E-1
MEAN_MOTION_DDOT = 0

CCSDS_OMM_VERS = 2.0
CREATION_DATE  = 
ORIGINATOR     = 

OBJECT_NAME    = STARLINK-36711
OBJECT_ID      = 2026-041A
CENTER_NAME    = EARTH
REF_FRAME      = TEME
TIME_SYSTEM    = UTC
MEAN_ELEMENT_THEORY = SGP/SGP4

EPOCH          = 2026-03-20T04:11:53.248704
MEAN_MOTION    = 15.75298664
ECCENTRICITY   = .000108
INCLINATION    = 53.1595
RA_OF_ASC_NODE = 9.8195
ARG_OF_PERICENTER = 90.4098
MEAN_ANOMALY   = 269.7046

EPHEMERIS_TYPE = 0
CLASSIFICATION_TYPE = U
NORAD_CAT_ID   = 68040
ELEMENT_SET_NO = 999
REV_AT_EPOCH   = 287
BSTAR          = .14308E-2
MEAN_MOTION_DOT = .225202E-2
MEAN_MOTION_DDOT = 0

CCSDS_OMM_VERS = 2.0
CREATION_DATE  = 
ORIGINATOR     = 

OBJECT_NAME    = STARLINK-36825
OBJECT_ID      = 2026-041B
CENTER_NAME    = EARTH
REF_FRAME      = TEME
TIME_SYSTEM    = UTC
MEAN_ELEMENT_THEORY = SGP/SGP4

EPOCH          = 2026-03-20T03:42:02.937024
MEAN_MOTION    = 15.80925722
ECCENTRICITY   = .0000927
INCLINATION    = 53.1598
RA_OF_ASC_NODE = 9.6803
ARG_OF_PERICENTER = 98.0576
MEAN_ANOMALY   = 262.0552

EPHEMERIS_TYPE = 0
CLASSIFICATION_TYPE = U
NORAD_CAT_ID   = 68041
ELEMENT_SET_NO = 999
REV_AT_EPOCH   = 287
BSTAR          = .93671E-3
MEAN_MOTION_DOT = .188729E-2
MEAN_MOTION_DDOT = 0

